STARLINK-1366           
1 45569U 20025AQ  26068.20531678  .00111184  00000+0  70244-3 0  9997
2 45569  53.0440  40.9129 0008507  56.1589 304.0238 15.75756697325969
STARLINK-11662 [DTC]    
1 63754U 25089D   26068.11220266  .00251915  00000+0  19079-2 0  9991
2 63754  42.9977 295.8198 0000852 349.0948  10.9901 15.70838196 50091
