[{"OBJECT_NAME":"STARLINK-1366","OBJECT_ID":"2020-025AQ","EPOCH":"2026-03-09T04:55:39.369792","MEAN_MOTION":15.75756697,"ECCENTRICITY":0.00085074,"INCLINATION":53.044,"RA_OF_ASC_NODE":40.9129,"ARG_OF_PERICENTER":56.1589,"MEAN_ANOMALY":304.0238,"EPHEMERIS_TYPE":0,"CLASSIFICATION_TYPE":"U","NORAD_CAT_ID":45569,"ELEMENT_SET_NO":999,"REV_AT_EPOCH":32596,"BSTAR":0.00070244107,"MEAN_MOTION_DOT":0.00111184,"MEAN_MOTION_DDOT":0},{"OBJECT_NAME":"STARLINK-11662 [DTC]","OBJECT_ID":"2025-089D","EPOCH":"2026-03-09T02:41:34.309824","MEAN_MOTION":15.70838196,"ECCENTRICITY":8.524e-5,"INCLINATION":42.9977,"RA_OF_ASC_NODE":295.8198,"ARG_OF_PERICENTER":349.0948,"MEAN_ANOMALY":10.9901,"EPHEMERIS_TYPE":0,"CLASSIFICATION_TYPE":"U","NORAD_CAT_ID":63754,"ELEMENT_SET_NO":999,"REV_AT_EPOCH":5009,"BSTAR":0.0019079346,"MEAN_MOTION_DOT":0.00251915,"MEAN_MOTION_DDOT":0}]
